{
	"english_name": "Yemen",
	"arabic_name": "Ø§Ù„ÙŠÙÙ…ÙÙ†",
	"iso3": "YEM",
	"iso2": "YE",
	"phone_code": "967",
	"capital_english": "Sanaa",
	"capital_arabic": "ØµÙ†Ø¹Ø§Ø¡",
	"area_in_kilometer_square": "555000",
	"currency": "YER",
	"currency_name_en": "Yemeni rial",
	"currency_name_ar": "Ø±ÙŠØ§Ù„ ÙŠÙ…Ù†ÙŠ",
	"currency_symbol": "ï·¼",
	"tld": ".ye",
	"region": "Asia",
	"subregion": "Western Asia",
	"timezones": [
		{
			"zoneName": "Asia/Aden",
			"gmtOffset": 10800,
			"gmtOffsetName": "UTC+03:00",
			"abbreviation": "AST",
			"tzName": "Arabia Standard Time"
		}
	],
	"translations": {
		"kr": "ì˜ˆë©˜",
		"br": "IÃªmen",
		"pt": "IÃ©men",
		"nl": "Jemen",
		"hr": "Jemen",
		"fa": "ÛŒÙ…Ù†",
		"de": "Jemen",
		"es": "Yemen",
		"fr": "YÃ©men",
		"ja": "ã‚¤ã‚¨ãƒ¡ãƒ³",
		"it": "Yemen",
		"cn": "ä¹Ÿé—¨",
		"tr": "Yemen"
	},
	"latitude": "15.00000000",
	"longitude": "48.00000000",
	"emoji": "ğŸ‡¾ğŸ‡ª",
	"emojiU": "U+1F1FE U+1F1EA",
	"governorates": [
		[
			{
				"name_en": "Amant Al-Asmah",
				"name_ar": "Ø£Ù…Ø§Ù†Ø© Ø§Ù„Ø¹Ø§ØµÙ…Ø©",
				"name_ar_tashkeel": "Ø£ÙÙ…Ø§Ù†ÙØ© Ø§Ù„Ø¹Ø§ØµÙÙ…ÙØ©Ù",
				"numbering_plan": "01",
				"districts": [
					{
						"name_en": "Sana'a Alqdimah",
						"name_ar": "ØµÙ†Ø¹Ø§Ø¡ Ø§Ù„Ù‚Ø¯ÙŠÙ…Ø©",
						"name_ar_tashkeel": "ØµÙÙ†Ù’Ø¹Ø§Ø¡ Ø§Ù„Ù‚ÙØ¯ÙÙŠÙ…ÙØ©"
					},
					{
						"name_en": "Azal",
						"name_ar": "Ø¢Ø²ÙØ§Ù’Ù„",
						"name_ar_tashkeel": "Ø¢Ø²ÙØ§Ù’Ù„"
					},
					{
						"name_en": "Alsafiah",
						"name_ar": "Ø§Ù„ØµÙ‘ÙØ§ÙÙÙŠÙØ©",
						"name_ar_tashkeel": "Ø§Ù„ØµÙ‘ÙØ§ÙÙÙŠÙØ©"
					},
					{
						"name_en": "Alsabe'en",
						"name_ar": "Ø§Ù„Ø³Ø¨Ø¹ÙŠÙ†",
						"name_ar_tashkeel": "Ø§Ù„Ø³Ù‘ÙØ¨Ù’Ø¹ÙÙŠÙ†"
					},
					{
						"name_en": "Sh'oob",
						"name_ar": "Ø´Ø¹ÙˆØ¨",
						"name_ar_tashkeel": "Ø´ÙØ¹ÙÙˆÙ’Ø¨"
					},
					{
						"name_en": "Alwehdah",
						"name_ar": "Ø§Ù„ÙˆØ­Ø¯Ø©",
						"name_ar_tashkeel": "Ø§Ù„ÙˆÙØ­Ù’Ø¯ÙØ©"
					},
					{
						"name_en": "Al-Tahrir",
						"name_ar": "Ø§Ù„ØªØ­Ø±ÙŠØ±",
						"name_ar_tashkeel": "Ø§Ù„ØªÙÙ‘Ø­Ù’Ø±ÙÙŠØ±"
					},
					{
						"name_en": "Al-Thowarah",
						"name_ar": "Ø§Ù„Ø«ÙˆØ±Ø©",
						"name_ar_tashkeel": "Ø§Ù„Ø«Ù‘ÙÙˆÙ’Ø±ÙØ©"
					},
					{
						"name_en": "Maeen",
						"name_ar": "Ù…Ø¹ÙŠÙ†",
						"name_ar_tashkeel": "Ù…ÙØ¹ÙÙŠÙ’Ù†"
					},
					{
						"name_en": "Bni Al-Harith",
						"name_ar": "Ø¨Ù†ÙŠ Ø§Ù„Ø­Ø§Ø±Ø«",
						"name_ar_tashkeel": "Ø¨ÙÙ†ÙÙŠÙ’ Ø§Ù„Ø­ÙØ§Ø±ÙØ«"
					}
				]
			},

			{
				"name_en": "Sanaa",
				"name_ar": "ØµÙ†Ø¹Ø§Ø¡",
				"name_ar_tashkeel": "ØµÙÙ†Ù’Ø¹Ø§Ø¡",
				"numbering_plan": "01",
				"districts": [
					{
						"name_en": "Hamdan",
						"name_ar": "Ù‡Ù…Ø¯Ø§Ù†",
						"name_ar_tashkeel": "Ù‡ÙÙ…Ù’Ø¯ÙØ§Ù†"
					},
					{
						"name_en": "Arhab",
						"name_ar": "Ø£Ø±Ø­Ø¨",
						"name_ar_tashkeel": "Ø£ÙØ±Ù’Ø­ÙØ¨"
					},
					{
						"name_en": "Jihanah",
						"name_ar": "Ø¬Ø­Ø§Ù†Ø©",
						"name_ar_tashkeel": "Ø¬ÙØ­Ø§Ù†Ù’Ø©"
					},
					{
						"name_en": "Bilad AL-Roos",
						"name_ar": "Ø¨Ù„Ø§Ø¯ Ø§Ù„Ø±ÙˆØ³",
						"name_ar_tashkeel": "Ø¨ÙÙ„ÙØ§Ø¯ Ø§Ù„Ø±ÙÙ‘ÙˆÙ’Ø³"
					},
					{
						"name_en": "Sanhan",
						"name_ar": "Ø³Ù†Ø­Ø§Ù†",
						"name_ar_tashkeel": "Ø³ÙÙ†Ù’Ø­ÙØ§Ù†"
					},
					{
						"name_en": "Al-Hisn",
						"name_ar": "Ø§Ù„Ø­ØµÙ†",
						"name_ar_tashkeel": "Ø§Ù„Ø­ÙØµÙ’Ù†"
					},
					{
						"name_en": "Sa'fan",
						"name_ar": "ØµØ¹ÙØ§Ù†",
						"name_ar_tashkeel": "ØµÙØ¹Ù’ÙØ§Ù†"
					},
					{
						"name_en": "Bni Hishaish",
						"name_ar": "Ø¨Ù†ÙŠ Ø­Ø´ÙŠØ´",
						"name_ar_tashkeel": "Ø¨ÙÙ†ÙÙŠ Ø­ÙØ´ÙÙŠÙ’Ø´"
					},
					{
						"name_en": "Al-Tial",
						"name_ar": "Ø§Ù„Ø·ÙŠØ§Ù„",
						"name_ar_tashkeel": "Ø§Ù„Ø·ÙÙ‘ÙŠÙØ§Ù„"
					},
					{
						"name_en": "Khawlan",
						"name_ar": "Ø®ÙˆÙ„Ø§Ù†",
						"name_ar_tashkeel": "Ø®ÙÙˆÙ’Ù„ÙØ§Ù†"
					},
					{
						"name_en": "Bni Dhabian",
						"name_ar": "Ø¨Ù†ÙŠ Ø¶Ø¨ÙŠØ§Ù†",
						"name_ar_tashkeel": "Ø¨ÙÙ†ÙÙŠÙ Ø¶ÙØ¨Ù’ÙŠÙØ§Ù†"
					},
					{
						"name_en": "AL-Haimah Al-Kharijiah",
						"name_ar": "Ø§Ù„Ø­ÙŠÙ…Ø© Ø§Ù„Ø®Ø§Ø±Ø¬ÙŠØ©",
						"name_ar_tashkeel": "Ø§Ù„Ø­ÙÙŠÙ’Ù…ÙØ© Ø§Ù„Ø®ÙØ§Ø±ÙØ¬ÙÙŠÙ‘ÙØ©"
					},
					{
						"name_en": "Al-Haimah Al-Dakhiliah",
						"name_ar": "Ø§Ù„Ø­ÙŠÙ…Ø© Ø§Ù„Ø¯Ø§Ø®Ù„ÙŠØ©",
						"name_ar_tashkeel": "Ø§Ù„Ø­ÙÙŠÙ’Ù…ÙØ© Ø§Ù„Ø¯Ù‘ÙØ§Ø®ÙÙ„ÙÙŠÙ‘ÙØ©"
					},
					{
						"name_en": "Manakhah",
						"name_ar": "Ù…Ù†Ø§Ø®Ø©",
						"name_ar_tashkeel": "Ù…ÙÙ†ÙØ§Ø®ÙØ©"
					},
					{
						"name_en": "Nihm",
						"name_ar": "Ù†Ù‡Ù…",
						"name_ar_tashkeel": "Ù†ÙÙ‡Ù’Ù…"
					},
					{
						"name_en": "Bni Matar",
						"name_ar": "Ø¨Ù†ÙŠ Ù…Ø·Ø±",
						"name_ar_tashkeel": "Ø¨ÙÙ†ÙÙŠ Ù…ÙØ·ÙØ±"
					}
				]
			},

			{
				"name_en": "Aden",
				"name_ar": "Ø¹Ø¯Ù†",
				"name_ar_tashkeel": "Ø¹ÙØ¯ÙÙ†",
				"numbering_plan": "02",
				"districts": [
					{
						"name_en": "Dar Saad",
						"name_ar": "Ø¯Ø§Ø± Ø³Ø¹Ø¯",
						"name_ar_tashkeel": "Ø¯ÙØ§Ø± Ø³ÙØ¹Ù’Ø¯"
					},

					{
						"name_en": "Al-Shaikh Othman",
						"name_ar": "Ø§Ù„Ø´ÙŠØ® Ø¹Ø«Ù…Ø§Ù†",
						"name_ar_tashkeel": "Ø§Ù„Ø´Ù‘ÙÙŠÙ’Ø® Ø¹ÙØ«Ù’Ù…ÙØ§Ù†"
					},
					{
						"name_en": "Al-Mansorah",
						"name_ar": "Ø§Ù„Ù…Ù†ØµÙˆØ±Ø©",
						"name_ar_tashkeel": "Ø§Ù„Ù…ÙÙ†Ù’ØµÙÙˆØ±ÙØ©"
					},
					{
						"name_en": "Al-Boriqah",
						"name_ar": "Ø§Ù„Ø¨Ø±ÙŠÙ‚Ø©",
						"name_ar_tashkeel": "Ø§Ù„Ø¨ÙØ±ÙÙŠÙ’Ù‚ÙØ©"
					},
					{
						"name_en": "Al-Tawwahi",
						"name_ar": "Ø§Ù„ØªÙˆØ§Ù‡ÙŠ",
						"name_ar_tashkeel": "Ø§Ù„ØªÙ‘ÙÙˆÙ‘ÙØ§Ù‡ÙÙŠ"
					},
					{
						"name_en": "Khoor Maksar",
						"name_ar": "Ø®ÙˆØ± Ù…ÙƒØ³Ø±",
						"name_ar_tashkeel": "Ø®ÙÙˆÙ’Ø± Ù…ÙÙƒÙØ³ÙØ±"
					},
					{
						"name_en": "Seerh",
						"name_ar": "ØµÙŠØ±Ø©",
						"name_ar_tashkeel": "ØµÙÙŠÙ’Ø±ÙØ©"
					},
					{
						"name_en": "Al-Mo'alla",
						"name_ar": "Ø§Ù„Ù…Ø¹Ù„Ø§",
						"name_ar_tashkeel": "Ø§Ù„Ù…ÙØ¹ÙÙ„Ù‘ÙØ§"
					}
				]
			},
			{
				"name_en": "Al-Hodeidah",
				"name_ar": "Ø§Ù„Ø­Ø¯ÙŠØ¯Ø©",
				"name_ar_tashkeel": "Ø§Ù„Ø­ÙØ¯ÙÙŠÙ’Ø¯ÙØ©",
				"numbering_plan": "03",
				"districts": [
					{
						"name_en": "Bait Al-Fakih",
						"name_ar": "Ø¨ÙŠØª Ø§Ù„ÙÙ‚ÙŠØ©",
						"name_ar_tashkeel": "Ø¨ÙÙŠÙ’Øª Ø§Ù„ÙÙÙ‚ÙÙŠÙ’Ø©"
					},

					{
						"name_en": "Al-Tohaita",
						"name_ar": "Ø§Ù„ØªØ­ÙŠØªØ§",
						"name_ar_tashkeel": "Ø§Ù„ØªÙÙ‘Ø­ÙÙŠÙ’ØªÙØ§"
					},
					{
						"name_en": "Kamaran",
						"name_ar": "ÙƒÙ…Ø±Ø§Ù†",
						"name_ar_tashkeel": "ÙƒÙÙ…ÙØ±ÙØ§Ù†"
					},
					{
						"name_en": "Al-Khookhah",
						"name_ar": "Ø§Ù„Ø®ÙˆØ®Ø©",
						"name_ar_tashkeel": "Ø§Ù„Ø®ÙÙˆÙ’Ø®ÙØ©"
					},
					{
						"name_en": "Al-Doraihmi",
						"name_ar": "Ø§Ù„Ø¯Ø±ÙŠÙ‡Ù…ÙŠ",
						"name_ar_tashkeel": "Ø§Ù„Ø¯ÙØ±ÙÙŠÙ’Ù‡ÙÙ…ÙÙŠ"
					},
					{
						"name_en": "Al-Luhayyah",
						"name_ar": "Ø§Ù„Ù„Ø­ÙŠØ©",
						"name_ar_tashkeel": "Ø§Ù„Ù„Ù‘ÙØ­ÙÙŠÙ‘ÙØ©"
					},
					{
						"name_en": "Zabeed",
						"name_ar": "Ø²Ø¨ÙŠØ¯",
						"name_ar_tashkeel": "Ø²ÙØ¨ÙÙŠÙ’Ø¯"
					},
					{
						"name_en": "Jabal Raas",
						"name_ar": "Ø¬Ø¨Ù„ Ø±Ø§Ø³",
						"name_ar_tashkeel": "Ø¬ÙØ¨ÙÙ„ Ø±ÙØ§Ø³"
					},
					{
						"name_en": "Al-Marawiah",
						"name_ar": "Ø§Ù„Ù…Ø±Ø§ÙˆØ¹Ø©",
						"name_ar_tashkeel": "Ø§Ù„Ù…ÙØ±ÙØ§ÙˆÙØ¹ÙØ©"
					},
					{
						"name_en": "Al-Jarrahi",
						"name_ar": "Ø§Ù„Ø¬Ø±Ø§Ø­ÙŠ",
						"name_ar_tashkeel": "Ø§Ù„Ø¬Ù‘ÙØ±Ù‘ÙØ§Ø­ÙÙŠ"
					},
					{
						"name_en": "Al-Zuhrah",
						"name_ar": "Ø§Ù„Ø²Ù‡Ø±Ø©",
						"name_ar_tashkeel": "Ø§Ù„Ø²Ù‘ÙÙ‡Ù’Ø±ÙØ©"
					},
					{
						"name_en": "Al-Mighlaf",
						"name_ar": "Ø§Ù„Ù…ØºÙ„Ø§Ù",
						"name_ar_tashkeel": "Ø§Ù„Ù…ÙØºÙ’Ù„ÙØ§Ù"
					},
					{
						"name_en": "Al-Mansoriah",
						"name_ar": "Ø§Ù„Ù…Ù†ØµÙˆØ±ÙŠØ©",
						"name_ar_tashkeel": "Ø§Ù„Ù…ÙÙ†Ù’ØµÙÙˆØ±ÙÙŠÙ‘ÙØ©"
					},
					{
						"name_en": "Al-Zaydiyah",
						"name_ar": "Ø§Ù„Ø²ÙŠØ¯ÙŠØ©",
						"name_ar_tashkeel": "Ø§Ù„Ø²ÙÙ‘ÙŠÙ’Ø¯ÙÙŠÙØ©"
					},
					{
						"name_en": "Al-Hali",
						"name_ar": "Ø§Ù„Ø­Ø§Ù„ÙŠ",
						"name_ar_tashkeel": "Ø§Ù„Ø­ÙØ§Ù„ÙÙŠ"
					},
					{
						"name_en": "Al-Hojailah",
						"name_ar": "Ø§Ù„Ø­Ø¬ÙŠÙ„Ø©",
						"name_ar_tashkeel": "Ø§Ù„Ø­ÙØ¬ÙÙ‘ÙŠÙ’Ù„ÙØ©"
					},
					{
						"name_en": "Al-Sokhnah",
						"name_ar": "Ø§Ù„Ø³Ø®Ù†Ø©",
						"name_ar_tashkeel": "Ø§Ù„Ø³ÙÙ‘Ø®Ù’Ù†ÙØ©"
					},
					{
						"name_en": "Al-Munirah",
						"name_ar": "Ø§Ù„Ù…Ù†ÙŠØ±Ø©",
						"name_ar_tashkeel": "Ø§Ù„Ù…ÙÙ†ÙÙŠÙ’Ø±ÙØ©"
					},
					{
						"name_en": "Al-Hook",
						"name_ar": "Ø§Ù„Ø­ÙˆÙƒ",
						"name_ar_tashkeel": "Ø§Ù„Ø­ÙÙˆÙÙƒ"
					},
					{
						"name_en": "Al-Saleef",
						"name_ar": "Ø§Ù„ØµÙ„ÙŠÙ",
						"name_ar_tashkeel": "Ø§Ù„ØµÙ‘ÙÙ„ÙÙŠÙ’Ù"
					},
					{
						"name_en": "Al-Mena",
						"name_ar": "Ø§Ù„Ù…ÙŠÙ†Ø§Ø¡",
						"name_ar_tashkeel": "Ø§Ù„Ù…ÙÙŠÙ’Ù†ÙØ§Ø¡"
					},
					{
						"name_en": "Bajil",
						"name_ar": "Ø¨Ø§Ø¬Ù„",
						"name_ar_tashkeel": "Ø¨ÙØ§Ø¬ÙÙ„"
					},
					{
						"name_en": "Al-Dhahi",
						"name_ar": "Ø§Ù„Ø¶Ø­ÙŠ",
						"name_ar_tashkeel": "Ø§Ù„Ø¶Ù‘ÙØ­ÙÙŠ"
					},
					{
						"name_en": "Hais",
						"name_ar": "Ø­ÙŠØ³",
						"name_ar_tashkeel": "Ø­ÙÙŠÙ’Ø³"
					},
					{
						"name_en": "Al-Qnawis",
						"name_ar": "Ø§Ù„Ù‚Ù†Ø§ÙˆØµ",
						"name_ar_tashkeel": "Ø§Ù„Ù‚ÙÙ†ÙØ§ÙˆÙØµ"
					},
					{
						"name_en": "Bora",
						"name_ar": "Ø¨Ø±Ø¹",
						"name_ar_tashkeel": "Ø¨ÙØ±ÙØ¹"
					}
				]
			},
			{
				"name_en": "Thamar",
				"name_ar": "Ø°Ù…Ø§Ø±",
				"name_ar_tashkeel": "Ø°ÙÙ…ÙØ§Ø±",
				"numbering_plan": "06",
				"districts": [
					{
						"name_en": "Jhran",
						"name_ar": "Ø¬Ù‡Ø±Ø§Ù†",
						"name_ar_tashkeel": "Ø¬ÙÙ‡Ù’Ø±ÙØ§Ù†"
					},

					{
						"name_en": "Otmah",
						"name_ar": "Ø¹ØªÙ…Ø©",
						"name_ar_tashkeel": "Ø¹ÙØªÙ’Ù…ÙØ©"
					},
					{
						"name_en": "Mayfaâ€™at Ans",
						"name_ar": "Ù…ÙŠÙØ¹Ø© Ø¹Ù†Ø³",
						"name_ar_tashkeel": "Ù…ÙÙŠÙ’ÙÙØ¹ÙØ© Ø¹ÙÙ†Ù’Ø³"
					},
					{
						"name_en": "Al-Hada",
						"name_ar": "Ø§Ù„Ø­Ø¯Ø§Ø¡",
						"name_ar_tashkeel": "Ø§Ù„Ø­ÙØ¯ÙØ§Ø¡"
					},
					{
						"name_en": "Ans",
						"name_ar": "Ø¹Ù†Ø³",
						"name_ar_tashkeel": "Ø¹ÙÙ†Ù’Ø³"
					},
					{
						"name_en": "Wosab Al-Safil",
						"name_ar": "ÙˆØµØ§Ø¨ Ø§Ù„Ø³Ø§ÙÙ„",
						"name_ar_tashkeel": "ÙˆÙØµÙØ§Ø¨ Ø§Ù„Ø³Ù‘ÙØ§ÙÙÙ„"
					},
					{
						"name_en": "Wosab Al-Aali",
						"name_ar": "ÙˆØµØ§Ø¨ Ø§Ù„Ø¹Ø§Ù„ÙŠ",
						"name_ar_tashkeel": "ÙˆÙØµÙØ§Ø¨ Ø§Ù„Ø¹ÙØ§Ù„ÙÙŠ"
					},
					{
						"name_en": "Jabal Al-Sharq",
						"name_ar": "Ø¬Ø¨Ù„ Ø§Ù„Ø´Ø±Ù‚",
						"name_ar_tashkeel": "Ø¬ÙØ¨ÙÙ„ Ø§Ù„Ø´Ù‘ÙØ±Ù’Ù‚"
					},
					{
						"name_en": "Al-Manar",
						"name_ar": "Ø§Ù„Ù…Ù†Ø§Ø±",
						"name_ar_tashkeel": "Ø§Ù„Ù…ÙÙ†ÙØ§Ø±"
					},
					{
						"name_en": "Maghrib Ans",
						"name_ar": "Ù…ØºØ±Ø¨ Ø¹Ù†Ø³",
						"name_ar_tashkeel": "Ù…ÙØºÙ’Ø±ÙØ¨ Ø¹ÙÙ†Ù’Ø³"
					},
					{
						"name_en": "Dhoran Aanis",
						"name_ar": "Ø¶ÙˆØ±Ø§Ù† Ø¢Ù†Ø³",
						"name_ar_tashkeel": "Ø¶ÙÙˆÙ’Ø±ÙØ§Ù† Ø¢Ù†ÙØ³"
					},
					{
						"name_en": "Thamar City",
						"name_ar": "Ù…Ø¯ÙŠÙ†Ø© Ø°Ù…Ø§Ø±",
						"name_ar_tashkeel": "Ù…ÙØ¯ÙÙŠÙ’Ù†ÙØ© Ø°ÙÙ…ÙØ§Ø±"
					}
				]
			},
			{
				"name_en": "Amran",
				"name_ar": "Ø¹Ù…Ø±Ø§Ù†",
				"name_ar_tashkeel": "Ø¹ÙÙ…Ù’Ø±Ø§Ù†",
				"numbering_plan": "07",
				"districts": [
					{
						"name_en": "Harf Sofian",
						"name_ar": "Ø­Ø±Ù Ø³ÙÙŠØ§Ù†",
						"name_ar_tashkeel": "Ø­ÙØ±Ù’Ù Ø³ÙÙÙ’ÙŠÙØ§Ù†"
					},

					{
						"name_en": "Hooth",
						"name_ar": "Ø­ÙˆØ«",
						"name_ar_tashkeel": "Ø­ÙÙˆÙ’Ø«"
					},
					{
						"name_en": "Al-Ashah",
						"name_ar": "Ø§Ù„Ø¹Ø´Ø©",
						"name_ar_tashkeel": "Ø§Ù„Ø¹ÙØ´Ù‘ÙØ©"
					},
					{
						"name_en": "Qiflt Ethar",
						"name_ar": "Ù‚ÙÙ„Ø© Ø¹Ø°Ø±",
						"name_ar_tashkeel": "Ù‚ÙÙÙ’Ù„ÙØ© Ø¹ÙØ°ÙØ±"
					},
					{
						"name_en": "Shaharah",
						"name_ar": "Ø´Ù‡Ø§Ø±Ø©",
						"name_ar_tashkeel": "Ø´ÙÙ‡ÙØ§Ø±ÙØ©"
					},
					{
						"name_en": "Al-Madan",
						"name_ar": "Ø§Ù„Ù…Ø¯Ø§Ù†",
						"name_ar_tashkeel": "Ø§Ù„Ù…ÙØ¯ÙØ§Ù†"
					},
					{
						"name_en": "Sowair",
						"name_ar": "ØµÙˆÙŠØ±",
						"name_ar_tashkeel": "ØµÙÙˆÙÙŠÙ’Ø±"
					},
					{
						"name_en": "Dholaimah Haboor",
						"name_ar": "Ø¸Ù„ÙŠÙ…Ø© Ø­Ø¨ÙˆØ±",
						"name_ar_tashkeel": "Ø¸ÙÙ„ÙÙŠÙ’Ù…ÙØ© Ø­ÙØ¨ÙÙˆÙ’Ø±"
					},
					{
						"name_en": "Al-Sawdah",
						"name_ar": "Ø§Ù„Ø³ÙˆØ¯Ø©",
						"name_ar_tashkeel": "Ø§Ù„Ø³Ù‘ÙÙˆÙ’Ø¯ÙØ©"
					},
					{
						"name_en": "Khamer",
						"name_ar": "Ø®Ù…Ø±",
						"name_ar_tashkeel": "Ø®ÙÙ…ÙØ±"
					},
					{
						"name_en": "Thibain",
						"name_ar": "Ø°ÙŠØ¨ÙŠÙ†",
						"name_ar_tashkeel": "Ø°ÙÙŠÙ’Ø¨ÙÙŠÙ’Ù†"
					},
					{
						"name_en": "Kharif",
						"name_ar": "Ø®Ø§Ø±Ù",
						"name_ar_tashkeel": "Ø®ÙØ§Ø±ÙÙ"
					},
					{
						"name_en": "Raidah",
						"name_ar": "Ø±ÙŠØ¯Ø©",
						"name_ar_tashkeel": "Ø±ÙÙŠÙ’Ø¯ÙØ©"
					},
					{
						"name_en": "Eyal Yazeed Mountain",
						"name_ar": "Ø¬Ø¨Ù„ Ø¹ÙŠØ§Ù„ ÙŠØ²ÙŠØ¯",
						"name_ar_tashkeel": "Ø¬ÙØ¨ÙÙ„ Ø¹ÙÙŠÙØ§Ù„ ÙŠÙØ²ÙÙŠÙ’Ø¯"
					},
					{
						"name_en": "Al-Sawd",
						"name_ar": "Ø§Ù„Ø³ÙˆØ¯",
						"name_ar_tashkeel": "Ø§Ù„Ø³Ù‘ÙÙˆÙ’Ø¯"
					},
					{
						"name_en": "Amran",
						"name_ar": "Ø¹Ù…Ø±Ø§Ù†",
						"name_ar_tashkeel": "Ø¹ÙÙ…Ù’Ø±ÙØ§Ù†"
					},
					{
						"name_en": "Maswar",
						"name_ar": "Ù…Ø³ÙˆØ±",
						"name_ar_tashkeel": "Ù…ÙØ³Ù’ÙˆÙØ±"
					},
					{
						"name_en": "Thula",
						"name_ar": "Ø«Ù„Ø§",
						"name_ar_tashkeel": "Ø«ÙÙ„ÙØ§"
					},
					{
						"name_en": "Eial Sraih",
						"name_ar": "Ø¹ÙŠØ§Ù„ Ø³Ø±ÙŠØ­",
						"name_ar_tashkeel": "Ø¹ÙÙŠÙ’Ø§Ù„ Ø³ÙØ±ÙÙŠÙ’Ø­"
					},
					{
						"name_en": "Bni Soraim",
						"name_ar": "Ø¨Ù†ÙŠ ØµØ±ÙŠÙ…",
						"name_ar_tashkeel": "Ø¨ÙÙ†ÙÙŠ ØµÙØ±ÙÙŠÙ’Ù…"
					}
				]
			},
			{
				"name_en": "Hajjah",
				"name_ar": "Ø­Ø¬Ø©",
				"name_ar_tashkeel": "Ø­ÙØ¬Ù‘ÙØ©",
				"numbering_plan": "07",
				"districts": [
					{
						"name_en": "Bakel Al-Meer",
						"name_ar": "Ø¨ÙƒÙŠÙ„ Ø§Ù„Ù…ÙŠØ±",
						"name_ar_tashkeel": "Ø¨ÙÙƒÙÙŠÙ’Ù„ Ø§Ù„Ù…ÙÙŠÙ’Ø±"
					},

					{
						"name_en": "Bni Al-Awam",
						"name_ar": "Ø¨Ù†ÙŠ Ø§Ù„Ø¹ÙˆØ§Ù…",
						"name_ar_tashkeel": "Ø¨ÙÙ†ÙÙŠ Ø§Ù„Ø¹ÙÙˆÙ‘Ø§Ù…"
					},
					{
						"name_en": "Aflah Al-Sham",
						"name_ar": "Ø£ÙÙ„Ø­ Ø§Ù„Ø´Ø§Ù…",
						"name_ar_tashkeel": "Ø£ÙÙÙ’Ù„ÙØ­ Ø§Ù„Ø´Ù‘ÙØ§Ù…"
					},
					{
						"name_en": "Aflah Al-Yemen",
						"name_ar": "Ø£ÙÙ„Ø­ Ø§Ù„ÙŠÙ…Ù†",
						"name_ar_tashkeel": "Ø£ÙÙÙ’Ù„ÙØ­ Ø§Ù„ÙŠÙÙ…ÙÙ†"
					},
					{
						"name_en": "Bni Qais Al-Tawr",
						"name_ar": "Ø¨Ù†ÙŠ Ù‚ÙŠØ³ Ø§Ù„Ø·ÙˆØ±",
						"name_ar_tashkeel": "Ø¨ÙÙ†ÙÙŠ Ù‚ÙÙŠÙ’Ø³ Ø§Ù„Ø·ÙÙÙˆÙ’Ø±"
					},
					{
						"name_en": "Kohlan Al-Sharaf",
						"name_ar": "ÙƒØ­Ù„Ø§Ù† Ø§Ù„Ø´Ø±Ù",
						"name_ar_tashkeel": "ÙƒÙØ­Ù’Ù„ÙØ§Ù† Ø§Ù„Ø´ÙÙ‘Ø±ÙÙ"
					},
					{
						"name_en": "Qohlan Affar",
						"name_ar": "ÙƒØ­Ù„Ø§Ù† Ø¹ÙØ§Ø±",
						"name_ar_tashkeel": "ÙƒÙØ­Ù’Ù„ÙØ§Ù† Ø¹ÙÙÙ‘ÙØ§Ø±"
					},
					{
						"name_en": "Khiran Al-Mahrraq",
						"name_ar": "Ø®ÙŠØ±Ø§Ù† Ø§Ù„Ù…Ø­Ø±Ù‚",
						"name_ar_tashkeel": "Ø®ÙÙŠÙ’Ø±ÙØ§Ù† Ø§Ù„Ù…ÙØ­ÙØ±ÙÙ‘Ù‚"
					},
					{
						"name_en": "Hajjah",
						"name_ar": "Ø­Ø¬Ø©",
						"name_ar_tashkeel": "Ø­ÙØ¬Ù‘ÙØ©"
					},
					{
						"name_en": "Hajjah City",
						"name_ar": "Ù…Ø¯ÙŠÙ†Ø© Ø­Ø¬Ø©",
						"name_ar_tashkeel": "Ù…ÙØ¯ÙÙŠÙ’Ù†ÙØ© Ø­ÙØ¬Ù‘ÙØ©"
					},
					{
						"name_en": "Qufl Shamar",
						"name_ar": "Ù‚ÙÙ„ Ø´Ù…Ø±",
						"name_ar_tashkeel": "Ù‚ÙÙÙ’Ù„ Ø´ÙÙ…ÙØ±"
					},
					{
						"name_en": "Qarah",
						"name_ar": "Ù‚Ø§Ø±Ø©",
						"name_ar_tashkeel": "Ù‚ÙØ§Ø±ÙØ©"
					},
					{
						"name_en": "Aslm",
						"name_ar": "Ø£Ø³Ù„Ù…",
						"name_ar_tashkeel": "Ø£ÙØ³Ù’Ù„ÙÙ…"
					},
					{
						"name_en": "Al-Jamimah",
						"name_ar": "Ø§Ù„Ø¬Ù…ÙŠÙ…Ø©",
						"name_ar_tashkeel": "Ø§Ù„Ø¬ÙÙ…ÙÙŠÙ’Ù…ÙØ©"
					},
					{
						"name_en": "Wishhah",
						"name_ar": "ÙˆØ´Ø­Ø©",
						"name_ar_tashkeel": "ÙˆÙØ´Ù’Ø­ÙØ©"
					},
					{
						"name_en": "Al-Shaghadrah",
						"name_ar": "Ø§Ù„Ø´ØºØ§Ø¯Ø±Ø©",
						"name_ar_tashkeel": "Ø§Ù„Ø´Ù‘ÙØºÙØ§Ø¯ÙØ±ÙØ©"
					},
					{
						"name_en": "Al-Mahabishah",
						"name_ar": "Ø§Ù„Ù…Ø­Ø§Ø¨Ø´Ø©",
						"name_ar_tashkeel": "Ø§Ù„Ù…ÙØ­ÙØ§Ø¨ÙØ´ÙØ©"
					},
					{
						"name_en": "Al-Maghribah",
						"name_ar": "Ø§Ù„Ù…ØºØ±Ø¨Ø©",
						"name_ar_tashkeel": "Ø§Ù„Ù…ÙØºÙ’Ø±ÙØ¨ÙØ©"
					},
					{
						"name_en": "Al-Miftah",
						"name_ar": "Ø§Ù„Ù…ÙØªØ§Ø­",
						"name_ar_tashkeel": "Ø§Ù„Ù…ÙÙÙ’ØªÙØ§Ø­"
					},
					{
						"name_en": "Haradh",
						"name_ar": "Ø­Ø±Ø¶",
						"name_ar_tashkeel": "Ø­ÙØ±ÙØ¶"
					},
					{
						"name_en": "Hairan",
						"name_ar": "Ø­ÙŠØ±Ø§Ù†",
						"name_ar_tashkeel": "Ø­ÙÙŠÙ’Ø±ÙØ§Ù†"
					},
					{
						"name_en": "Koshar",
						"name_ar": "ÙƒØ´Ø±",
						"name_ar_tashkeel": "ÙƒÙØ´ÙØ±"
					},
					{
						"name_en": "Sharis",
						"name_ar": "Ø´Ø±Ø³",
						"name_ar_tashkeel": "Ø´ÙØ±ÙØ³"
					},
					{
						"name_en": "Abs",
						"name_ar": "Ø¹Ø¨Ø³",
						"name_ar_tashkeel": "Ø¹ÙØ¨Ù’Ø³"
					},
					{
						"name_en": "Koa'dnah",
						"name_ar": "ÙƒØ¹ÙŠØ¯Ù†Ø©",
						"name_ar_tashkeel": "ÙƒÙØ¹ÙÙŠÙ’Ø¯ÙÙ†ÙØ©"
					},
					{
						"name_en": "Mabian",
						"name_ar": "Ù…Ø¨ÙŠÙ†",
						"name_ar_tashkeel": "Ù…ÙØ¨Ù’ÙŠÙÙ†"
					},
					{
						"name_en": "Al-Shahil",
						"name_ar": "Ø§Ù„Ø´Ø§Ù‡Ù„",
						"name_ar_tashkeel": "Ø§Ù„Ø´Ù‘ÙØ§Ù‡ÙÙ„"
					},
					{
						"name_en": "Wdhrah",
						"name_ar": "ÙˆØ¶Ø±Ø©",
						"name_ar_tashkeel": "ÙˆÙØ¶Ù’Ø±ÙØ©"
					},
					{
						"name_en": "Mostaba'",
						"name_ar": "Ù…Ø³ØªØ¨Ø§Ø¡",
						"name_ar_tashkeel": "Ù…ÙØ³Ù’ØªÙØ¨ÙØ§Ø¡"
					},
					{
						"name_en": "Meedi",
						"name_ar": "Ù…ÙŠØ¯ÙŠ",
						"name_ar_tashkeel": "Ù…ÙÙŠÙ’Ø¯ÙÙŠ"
					},
					{
						"name_en": "Najrah",
						"name_ar": "Ù†Ø¬Ø±Ø©",
						"name_ar_tashkeel": "Ù†ÙØ¬Ù’Ø±ÙØ©"
					}
				]
			},
			{
				"name_en": "Ibb",
				"name_ar": "Ø¥Ø¨",
				"name_ar_tashkeel": "Ø¥ÙØ¨Ù’",
				"numbering_plan": "04",
				"districts": [
					{
						"name_en": "Al-Odain",
						"name_ar": "Ø§Ù„Ø¹Ø¯ÙŠÙ†",
						"name_ar_tashkeel": "Ø§Ù„Ø¹ÙØ¯ÙÙŠÙ’Ù†"
					},

					{
						"name_en": "Ibb",
						"name_ar": "Ø¥Ø¨",
						"name_ar_tashkeel": "Ø¥ÙØ¨"
					},
					{
						"name_en": "Ba'dan",
						"name_ar": "Ø¨Ø¹Ø¯Ø§Ù†",
						"name_ar_tashkeel": "Ø¨ÙØ¹Ù’Ø¯ÙØ§Ù†"
					},
					{
						"name_en": "Jiblah",
						"name_ar": "Ø¬Ø¨Ù„Ø©",
						"name_ar_tashkeel": "Ø¬ÙØ¨Ù’Ù„ÙØ©"
					},
					{
						"name_en": "Al-Nadrah",
						"name_ar": "Ø§Ù„Ù†Ø§Ø¯Ø±Ø©",
						"name_ar_tashkeel": "Ø§Ù„Ù†Ù‘ÙØ§Ø¯ÙØ±ÙØ©"
					},
					{
						"name_en": "Hobaish",
						"name_ar": "Ø­Ø¨ÙŠØ´",
						"name_ar_tashkeel": "Ø­ÙØ¨ÙÙŠÙ’Ø´"
					},
					{
						"name_en": "Hazm Al-Odain",
						"name_ar": "Ø­Ø²Ù… Ø§Ù„Ø¹Ø¯ÙŠÙ†",
						"name_ar_tashkeel": "Ø­ÙØ²Ù’Ù… Ø§Ù„Ø¹ÙØ¯ÙÙŠÙ’Ù†"
					},
					{
						"name_en": "Thi Al-Sufal",
						"name_ar": "Ø°ÙŠ Ø§Ù„Ø³ÙØ§Ù„",
						"name_ar_tashkeel": "Ø°ÙÙŠ Ø§Ù„Ø³Ù‘ÙÙÙØ§Ù„"
					},
					{
						"name_en": "Al-Radhmah",
						"name_ar": "Ø§Ù„Ø±Ø¶Ù…Ø©",
						"name_ar_tashkeel": "Ø§Ù„Ø±Ù‘ÙØ¶Ù’Ù…ÙØ©"
					},
					{
						"name_en": "Al-Sabrah",
						"name_ar": "Ø§Ù„Ø³Ø¨Ø±Ø©",
						"name_ar_tashkeel": "Ø§Ù„Ø³ÙÙ‘Ø¨Ù’Ø±ÙØ©"
					},
					{
						"name_en": "Al-Saddah",
						"name_ar": "Ø§Ù„Ø³Ø¯Ø©",
						"name_ar_tashkeel": "Ø§Ù„Ø³Ù‘ÙØ¯Ù‘ÙØ©"
					},
					{
						"name_en": "Al-Syiani",
						"name_ar": "Ø§Ù„Ø³ÙŠØ§Ù†ÙŠ",
						"name_ar_tashkeel": "Ø§Ù„Ø³Ù‘ÙÙŠÙÙ‘Ø§Ù†ÙÙŠ"
					},
					{
						"name_en": "Al-Sha'ir",
						"name_ar": "Ø§Ù„Ø´Ø¹Ø±",
						"name_ar_tashkeel": "Ø§Ù„Ø´Ù‘ÙØ¹ÙØ±"
					},
					{
						"name_en": "Al-Dhahar",
						"name_ar": "Ø§Ù„Ø¸Ù‡Ø§Ø±",
						"name_ar_tashkeel": "Ø§Ù„Ø¸ÙÙ‘Ù‡ÙØ§Ø±"
					},
					{
						"name_en": "Fara' Al-Odain",
						"name_ar": "ÙØ±Ø¹ Ø§Ù„Ø¹Ø¯ÙŠÙ†",
						"name_ar_tashkeel": "ÙÙØ±Ù’Ø¹ Ø§Ù„Ø¹ÙØ¯ÙÙŠÙ’Ù†"
					},
					{
						"name_en": "Al-Qafr",
						"name_ar": "Ø§Ù„Ù‚ÙØ±",
						"name_ar_tashkeel": "Ø§Ù„Ù‚ÙÙÙ’Ø±"
					},
					{
						"name_en": "Al-Makhadrh",
						"name_ar": "Ø§Ù„Ù…Ø®Ø§Ø¯Ø±",
						"name_ar_tashkeel": "Ø§Ù„Ù…ÙØ®ÙØ§Ø¯ÙØ±"
					},
					{
						"name_en": "Mothaikhrah",
						"name_ar": "Ù…Ø°ÙŠØ®Ø±Ø©",
						"name_ar_tashkeel": "Ù…ÙØ°ÙÙŠÙ’Ø®ÙØ±ÙØ©"
					},
					{
						"name_en": "Al-Mashnnah",
						"name_ar": "Ø§Ù„Ù…Ø´Ù†Ø©",
						"name_ar_tashkeel": "Ø§Ù„Ù…ÙØ´ÙÙ†Ù‘ÙØ©"
					},
					{
						"name_en": "Yareem",
						"name_ar": "ÙŠØ±ÙŠÙ…",
						"name_ar_tashkeel": "ÙŠÙØ±ÙÙŠÙ’Ù…"
					}
				]
			},
			{
				"name_en": "Sa'dah",
				"name_ar": "ØµØ¹Ø¯Ø©",
				"name_ar_tashkeel": "ØµÙØ¹Ù’Ø¯ÙØ©",
				"numbering_plan": "07",
				"districts": [
					{
						"name_en": "Al-Hishwah",
						"name_ar": "Ø§Ù„Ø­Ø´ÙˆØ©",
						"name_ar_tashkeel": "Ø§Ù„Ø­ÙØ´Ù’ÙˆÙØ©"
					},

					{
						"name_en": "Al-Safra'a",
						"name_ar": "Ø§Ù„ØµÙØ±Ø§Ø¡",
						"name_ar_tashkeel": "Ø§Ù„ØµÙÙ‘ÙÙ’Ø±ÙØ§Ø¡"
					},
					{
						"name_en": "Al-Dhahir",
						"name_ar": "Ø§Ù„Ø¸Ø§Ù‡Ø±",
						"name_ar_tashkeel": "Ø§Ù„Ø¸Ù‘ÙØ§Ù‡ÙØ±"
					},
					{
						"name_en": "Baqim",
						"name_ar": "Ø¨Ø§Ù‚Ù…",
						"name_ar_tashkeel": "Ø¨ÙØ§Ù‚ÙÙ…"
					},
					{
						"name_en": "Haidan",
						"name_ar": "Ø­ÙŠØ¯Ø§Ù†",
						"name_ar_tashkeel": "Ø­ÙÙŠÙ’Ø¯ÙØ§Ù†"
					},
					{
						"name_en": "Razih",
						"name_ar": "Ø±Ø§Ø²Ø­",
						"name_ar_tashkeel": "Ø±ÙØ§Ø²ÙØ­"
					},
					{
						"name_en": "Saqain",
						"name_ar": "Ø³Ø§Ù‚ÙŠÙ†",
						"name_ar_tashkeel": "Ø³ÙØ§Ù‚ÙÙŠÙ’Ù†"
					},
					{
						"name_en": "Sahar",
						"name_ar": "Ø³Ø­Ø§Ø±",
						"name_ar_tashkeel": "Ø³ÙØ­ÙØ§Ø±"
					},
					{
						"name_en": "Shida'a",
						"name_ar": "Ø´Ø¯Ø§Ø¡",
						"name_ar_tashkeel": "Ø´ÙØ¯ÙØ§Ø¡"
					},
					{
						"name_en": "Sa'dah",
						"name_ar": "ØµØ¹Ø¯Ø©",
						"name_ar_tashkeel": "ØµÙØ¹Ù’Ø¯ÙØ©"
					},
					{
						"name_en": "Ghamer",
						"name_ar": "ØºÙ…Ø±",
						"name_ar_tashkeel": "ØºÙÙ…ÙØ±"
					},
					{
						"name_en": "Qatabir",
						"name_ar": "Ù‚Ø·Ø§Ø¨Ø±",
						"name_ar_tashkeel": "Ù‚ÙØ·ÙØ§Ø¨ÙØ±"
					},
					{
						"name_en": "Kitaf and Bog'",
						"name_ar": "ÙƒØªØ§Ù ÙˆØ§Ù„Ø¨Ù‚Ø¹",
						"name_ar_tashkeel": "ÙƒÙØªÙØ§Ù ÙˆÙØ§Ù„Ø¨ÙÙ‚Ù’Ø¹"
					},
					{
						"name_en": "Majz",
						"name_ar": "Ù…Ø¬Ø²",
						"name_ar_tashkeel": "Ù…ÙØ¬Ù’Ø²"
					},
					{
						"name_en": "Munabbih",
						"name_ar": "Ù…Ù†Ø¨Ù‡",
						"name_ar_tashkeel": "Ù…ÙÙ†ÙØ¨Ù‘ÙÙ‡"
					}
				]
			},
			{
				"name_en": "Al-Baidha",
				"name_ar": "Ø§Ù„Ø¨ÙŠØ¶Ø§Ø¡",
				"name_ar_tashkeel": "Ø§Ù„Ø¨ÙÙŠÙ’Ø¶ÙØ§Ø¡",
				"numbering_plan": "06",
				"districts": [
					{
						"name_en": "Al-Baidha City",
						"name_ar": "Ù…Ø¯ÙŠÙ†Ø© Ø§Ù„Ø¨ÙŠØ¶Ø§Ø¡",
						"name_ar_tashkeel": "Ù…ÙØ¯ÙÙŠÙ†ÙØ© Ø§Ù„Ø¨ÙÙŠÙ’Ø¶ÙØ§Ø¡"
					},

					{
						"name_en": "Al-Baidha",
						"name_ar": "Ø§Ù„Ø¨ÙŠØ¶Ø§Ø¡",
						"name_ar_tashkeel": "Ø§Ù„Ø¨ÙÙŠÙ’Ø¶ÙØ§Ø¡"
					},
					{
						"name_en": "Al-Zaher",
						"name_ar": "Ø§Ù„Ø²Ø§Ù‡Ø±",
						"name_ar_tashkeel": "Ø§Ù„Ø²Ù‘ÙØ§Ù‡ÙØ±"
					},
					{
						"name_en": "Radman",
						"name_ar": "Ø±Ø¯Ù…Ø§Ù†",
						"name_ar_tashkeel": "Ø±ÙØ¯Ù’Ù…ÙØ§Ù†"
					},
					{
						"name_en": "Al-Riashiah",
						"name_ar": "Ø§Ù„Ø±ÙŠØ§Ø´ÙŠØ©",
						"name_ar_tashkeel": "Ø§Ù„Ø±ÙÙ‘ÙŠÙØ§Ø´ÙÙŠÙ‘ÙØ©"
					},
					{
						"name_en": "Al-Swadiah",
						"name_ar": "Ø§Ù„Ø³ÙˆØ§Ø¯ÙŠØ©",
						"name_ar_tashkeel": "Ø§Ù„Ø³Ù‘ÙÙˆÙØ§Ø¯ÙÙŠÙ‘ÙØ©"
					},
					{
						"name_en": "Al-Shariah",
						"name_ar": "Ø§Ù„Ø´Ø±ÙŠØ©",
						"name_ar_tashkeel": "Ø§Ù„Ø´ÙØ±ÙÙŠÙÙ‘Ø©"
					},
					{
						"name_en": "Sabah",
						"name_ar": "ØµØ¨Ø§Ø­",
						"name_ar_tashkeel": "ØµÙØ¨ÙØ§Ø­"
					},
					{
						"name_en": "Al-Sawma'ah",
						"name_ar": "Ø§Ù„ØµÙˆÙ…Ø¹Ø©",
						"name_ar_tashkeel": "Ø§Ù„ØµÙÙ‘ÙˆÙ’Ù…ÙØ¹ÙØ©"
					},
					{
						"name_en": "Al-Tiffah",
						"name_ar": "Ø§Ù„Ø·ÙØ©",
						"name_ar_tashkeel": "Ø§Ù„Ø·Ù‘ÙÙÙ‘ÙØ©"
					},
					{
						"name_en": "Al-Arsh",
						"name_ar": "Ø§Ù„Ø¹Ø±Ø´",
						"name_ar_tashkeel": "Ø§Ù„Ø¹ÙØ±Ù’Ø´"
					},
					{
						"name_en": "Al-Qurishiah",
						"name_ar": "Ø§Ù„Ù‚Ø±ÙŠØ´ÙŠØ©",
						"name_ar_tashkeel": "Ø§Ù„Ù‚ÙØ±ÙÙŠÙ’Ø´ÙÙŠÙ‘ÙØ©"
					},
					{
						"name_en": "Thi Na'em",
						"name_ar": "Ø°ÙŠ Ù†Ø§Ø¹Ù…",
						"name_ar_tashkeel": "Ø°ÙÙŠ Ù†ÙØ§Ø¹ÙÙ…"
					},
					{
						"name_en": "Maswarah",
						"name_ar": "Ù…Ø³ÙˆØ±Ø©",
						"name_ar_tashkeel": "Ù…ÙØ³Ù’ÙˆÙØ±ÙØ©"
					},
					{
						"name_en": "Mukiras",
						"name_ar": "Ù…ÙƒÙŠØ±Ø§Ø³",
						"name_ar_tashkeel": "Ù…ÙÙƒÙÙŠÙ’Ø±ÙØ§Ø³"
					},
					{
						"name_en": "Al-Malajim",
						"name_ar": "Ø§Ù„Ù…Ù„Ø§Ø¬Ù…",
						"name_ar_tashkeel": "Ø§Ù„Ù…ÙÙ„ÙØ§Ø¬ÙÙ…"
					},
					{
						"name_en": "Nati'",
						"name_ar": "Ù†Ø§Ø·Ø¹",
						"name_ar_tashkeel": "Ù†ÙØ§Ø·ÙØ¹"
					},
					{
						"name_en": "Na'man",
						"name_ar": "Ù†Ø¹Ù…Ø§Ù†",
						"name_ar_tashkeel": "Ù†ÙØ¹Ù’Ù…ÙØ§Ù†"
					},
					{
						"name_en": "Wild Rabee'",
						"name_ar": "ÙˆÙ„Ø¯ Ø±Ø¨ÙŠØ¹",
						"name_ar_tashkeel": "ÙˆÙÙ„Ù’Ø¯ Ø±ÙØ¨ÙÙŠÙ’Ø¹"
					},
					{
						"name_en": "Rada'",
						"name_ar": "Ø±Ø¯Ø§Ø¹",
						"name_ar_tashkeel": "Ø±ÙØ¯ÙØ§Ø¹"
					}
				]
			},
			{
				"name_en": "Shabwah",
				"name_ar": "Ø´Ø¨ÙˆØ©",
				"name_ar_tashkeel": "Ø´ÙØ¨Ù’ÙˆÙØ©",
				"numbering_plan": "05",
				"districts": [
					{
						"name_en": "Al-Rawdhah",
						"name_ar": "Ø§Ù„Ø±ÙˆØ¶Ø©",
						"name_ar_tashkeel": "Ø§Ù„Ø±ÙÙ‘ÙˆÙ’Ø¶ÙØ©"
					},

					{
						"name_en": "Bayhan",
						"name_ar": "Ø¨ÙŠØ­Ø§Ù†",
						"name_ar_tashkeel": "Ø¨ÙÙŠÙ’Ø­ÙØ§Ù†"
					},
					{
						"name_en": "Jardan",
						"name_ar": "Ø¬Ø±Ø¯Ø§Ù†",
						"name_ar_tashkeel": "Ø¬ÙØ±Ù’Ø¯ÙØ§Ù†"
					},
					{
						"name_en": "Habban",
						"name_ar": "Ø­Ø¨Ø§Ù†",
						"name_ar_tashkeel": "Ø­ÙØ¨Ù‘ÙØ§Ù†"
					},
					{
						"name_en": "Ain",
						"name_ar": "Ø¹ÙŠÙ†",
						"name_ar_tashkeel": "Ø¹ÙÙŠÙ’Ù†"
					},
					{
						"name_en": "Hotaib",
						"name_ar": "Ø­Ø·ÙŠØ¨",
						"name_ar_tashkeel": "Ø­ÙØ·ÙÙŠÙ’Ø¨"
					},
					{
						"name_en": "Duhur",
						"name_ar": "Ø¯Ù‡Ø±",
						"name_ar_tashkeel": "Ø¯ÙÙ‡ÙØ±"
					},
					{
						"name_en": "Rudhoom",
						"name_ar": "Ø±Ø¶ÙˆÙ…",
						"name_ar_tashkeel": "Ø±ÙØ¶ÙÙˆÙ’Ù…"
					},
					{
						"name_en": "Al-Sa'eed",
						"name_ar": "Ø§Ù„ØµØ¹ÙŠØ¯",
						"name_ar_tashkeel": "Ø§Ù„ØµÙ‘ÙØ¹ÙÙŠÙ’Ø¯"
					},
					{
						"name_en": "Al-Talh",
						"name_ar": "Ø§Ù„Ø·Ù„Ø­",
						"name_ar_tashkeel": "Ø§Ù„Ø·Ù‘ÙÙ„Ù’Ø­"
					},
					{
						"name_en": "Ataq",
						"name_ar": "Ø¹ØªÙ‚",
						"name_ar_tashkeel": "Ø¹ÙØªÙÙ‚"
					},
					{
						"name_en": "Arma'",
						"name_ar": "Ø¹Ø±Ù…Ø§Ø¡",
						"name_ar_tashkeel": "Ø¹ÙØ±Ù’Ù…ÙØ§Ø¡"
					},
					{
						"name_en": "Osailan",
						"name_ar": "Ø¹Ø³ÙŠÙ„Ø§Ù†",
						"name_ar_tashkeel": "Ø¹ÙØ³ÙÙŠÙ’Ù„ÙØ§Ù†"
					},
					{
						"name_en": "Markhah Al-Sofla",
						"name_ar": "Ù…Ø±Ø®Ø© Ø§Ù„Ø³ÙÙ„Ù‰",
						"name_ar_tashkeel": "Ù…ÙØ±Ù’Ø®ÙØ© Ø§Ù„Ø³ÙÙ‘ÙÙ’Ù„ÙÙ‰"
					},
					{
						"name_en": "Markhah Al-Olia",
						"name_ar": "Ù…Ø±Ø®Ø© Ø§Ù„Ø¹Ù„ÙŠØ§",
						"name_ar_tashkeel": "Ù…ÙØ±Ù’Ø®ÙØ© Ø§Ù„Ø¹ÙÙ„Ù’ÙŠÙØ§"
					},
					{
						"name_en": "Maifa'h",
						"name_ar": "Ù…ÙŠÙØ¹Ø©",
						"name_ar_tashkeel": "Ù…ÙÙŠÙ’ÙÙØ¹ÙØ©"
					},
					{
						"name_en": "Nesab",
						"name_ar": "Ù†ØµØ§Ø¨",
						"name_ar_tashkeel": "Ù†ÙØµÙØ§Ø¨"
					}
				]
			},
			{
				"name_en": "Taiz",
				"name_ar": "ØªØ¹Ø²",
				"name_ar_tashkeel": "ØªÙØ¹ÙØ²",
				"numbering_plan": "04",
				"districts": [
					{
						"name_en": "Mawiah",
						"name_ar": "Ù…Ø§ÙˆÙŠØ©",
						"name_ar_tashkeel": "Ù…ÙØ§ÙˆÙÙŠÙØ©"
					},

					{
						"name_en": "Shara'b Al-Salam",
						"name_ar": "Ø´Ø±Ø¹Ø¨ Ø§Ù„Ø³Ù„Ø§Ù…",
						"name_ar_tashkeel": "Ø´ÙØ±Ù’Ø¹ÙØ¨ Ø§Ù„Ø³Ù‘ÙÙ„ÙØ§Ù…"
					},
					{
						"name_en": "Shara'b Al-Rawnah",
						"name_ar": "Ø´Ø±Ø¹Ø¨ Ø§Ù„Ø±ÙˆÙ†Ø©",
						"name_ar_tashkeel": "Ø´ÙØ±Ù’Ø¹ÙØ¨ Ø§Ù„Ø±Ù‘ÙÙˆÙ’Ù†ÙØ©"
					},
					{
						"name_en": "Maqbana",
						"name_ar": "Ù…Ù‚Ø¨Ù†Ø©",
						"name_ar_tashkeel": "Ù…ÙÙ‚Ù’Ø¨ÙÙ†ÙØ©"
					},
					{
						"name_en": "Al-Makha",
						"name_ar": "Ø§Ù„Ù…Ø®Ø§",
						"name_ar_tashkeel": "Ø§Ù„Ù…ÙØ®ÙØ§"
					},
					{
						"name_en": "Thubab",
						"name_ar": "Ø°Ø¨Ø§Ø¨",
						"name_ar_tashkeel": "Ø°ÙØ¨ÙØ§Ø¨"
					},
					{
						"name_en": "Mawza'",
						"name_ar": "Ù…ÙˆØ²Ø¹",
						"name_ar_tashkeel": "Ù…ÙÙˆÙ’Ø²ÙØ¹"
					},
					{
						"name_en": "Habashi Mountain",
						"name_ar": "Ø¬Ø¨Ù„ Ø­Ø¨Ø´ÙŠ",
						"name_ar_tashkeel": "Ø¬ÙØ¨ÙÙ„ Ø­ÙØ¨ÙØ´ÙÙŠ"
					},
					{
						"name_en": "Mashra'a and Hadnan",
						"name_ar": "Ù…Ø´Ø±Ø¹Ø© ÙˆØ­Ø¯Ù†Ø§Ù†",
						"name_ar_tashkeel": "Ù…ÙØ´Ù’Ø±ÙØ¹ÙØ© ÙˆÙØ­ÙØ¯Ù’Ù†ÙØ§Ù†"
					},
					{
						"name_en": "Saber Al-Mawadim",
						"name_ar": "ØµØ¨Ø± Ø§Ù„Ù…ÙˆØ§Ø¯Ù…",
						"name_ar_tashkeel": "ØµÙØ¨ÙØ± Ø§Ù„Ù…ÙÙˆÙØ§Ø¯ÙÙ…"
					},
					{
						"name_en": "Al-Misrakh",
						"name_ar": "Ø§Ù„Ù…Ø³Ø±Ø§Ø®",
						"name_ar_tashkeel": "Ø§Ù„Ù…ÙØ³Ù’Ø±ÙØ§Ø®"
					},
					{
						"name_en": "Khadeer",
						"name_ar": "Ø®Ø¯ÙŠØ±",
						"name_ar_tashkeel": "Ø®ÙØ¯ÙÙŠÙ’Ø±"
					},
					{
						"name_en": "Al-Selw",
						"name_ar": "Ø§Ù„ØµÙ„Ùˆ",
						"name_ar_tashkeel": "Ø§Ù„ØµÙ‘ÙÙ„Ù’Ùˆ"
					},
					{
						"name_en": "Al-Shamaiatain",
						"name_ar": "Ø§Ù„Ø´Ù…Ø§ÙŠØªÙŠÙ†",
						"name_ar_tashkeel": "Ø§Ù„Ø´Ù‘ÙÙ…ÙØ§ÙŠÙØªÙÙŠÙ’Ù†"
					},
					{
						"name_en": "Al-Waz'iah",
						"name_ar": "Ø§Ù„ÙˆØ§Ø²Ø¹ÙŠØ©",
						"name_ar_tashkeel": "Ø§Ù„ÙˆÙØ§Ø²ÙØ¹ÙÙŠÙ‘ÙØ©"
					},
					{
						"name_en": "Haifan",
						"name_ar": "Ø­ÙŠÙØ§Ù†",
						"name_ar_tashkeel": "Ø­ÙÙŠÙ’ÙÙØ§Ù†"
					},
					{
						"name_en": "Al-Mathfar",
						"name_ar": "Ø§Ù„Ù…Ø¸ÙØ±",
						"name_ar_tashkeel": "Ø§Ù„Ù…ÙØ¸Ù’ÙÙØ±"
					},
					{
						"name_en": "Al-Qahera",
						"name_ar": "Ø§Ù„Ù‚Ø§Ù‡Ø±Ø©",
						"name_ar_tashkeel": "Ø§Ù„Ù‚ÙØ§Ù‡ÙØ±ÙØ©"
					},
					{
						"name_en": "Salah",
						"name_ar": "ØµØ§Ù„Ø©",
						"name_ar_tashkeel": "ØµÙØ§Ù„ÙØ©"
					},
					{
						"name_en": "Al-Taiziah",
						"name_ar": "Ø§Ù„ØªØ¹Ø²ÙŠØ©",
						"name_ar_tashkeel": "Ø§Ù„ØªÙ‘ÙØ¹ÙØ²ÙÙ‘ÙŠÙØ©"
					},
					{
						"name_en": "Al-Ma'afer",
						"name_ar": "Ø§Ù„Ù…Ø¹Ø§ÙØ±",
						"name_ar_tashkeel": "Ø§Ù„Ù…ÙØ¹ÙØ§ÙÙØ±"
					},
					{
						"name_en": "Al-Mawasit",
						"name_ar": "Ø§Ù„Ù…ÙˆØ§Ø³Ø·",
						"name_ar_tashkeel": "Ø§Ù„Ù…ÙÙˆÙØ§Ø³ÙØ·"
					},
					{
						"name_en": "Sama'",
						"name_ar": "Ø³Ø§Ù…Ø¹",
						"name_ar_tashkeel": "Ø³ÙØ§Ù…ÙØ¹"
					}
				]
			},
			{
				"name_en": "Al-jawf",
				"name_ar": "Ø§Ù„Ø¬ÙˆÙ",
				"name_ar_tashkeel": "Ø§Ù„Ø¬ÙÙˆÙ’Ù",
				"numbering_plan": "06",
				"districts": [
					{
						"name_en": "Barat Al-enan",
						"name_ar": "Ø¨Ø±Ø· Ø§Ù„Ø¹Ù†Ø§Ù†",
						"name_ar_tashkeel": "Ø¨ÙØ±ÙØ·Ù Ø§Ù„Ø¹ÙÙ†ÙØ§Ù†"
					},

					{
						"name_en": "Al-Hazm",
						"name_ar": "Ø§Ù„Ø­Ø²Ù…",
						"name_ar_tashkeel": "Ø§Ù„Ø­ÙØ²Ù’Ù…"
					},
					{
						"name_en": "Al-Humaidat",
						"name_ar": "Ø§Ù„Ø­Ù…ÙŠØ¯Ø§Øª",
						"name_ar_tashkeel": "Ø§Ù„Ø­ÙÙ…ÙÙŠÙ’Ø¯ÙØ§Øª"
					},
					{
						"name_en": "Khab and Al-Shaâ€™af",
						"name_ar": "Ø®Ø¨ ÙˆØ§Ù„Ø´Ø¹Ù",
						"name_ar_tashkeel": "Ø®ÙØ¨ ÙˆÙØ§Ù„Ø´ÙØ¹ÙÙ"
					},
					{
						"name_en": "Kharab Al-Marashi",
						"name_ar": "Ø®Ø±Ø§Ø¨ Ø§Ù„Ù…Ø±Ø§Ø´ÙŠ",
						"name_ar_tashkeel": "Ø®ÙØ±ÙØ§Ø¨ Ø§Ù„Ù…ÙØ±ÙØ§Ø´ÙÙŠ"
					},
					{
						"name_en": "Al-Khalq",
						"name_ar": "Ø§Ù„Ø®Ù„Ù‚",
						"name_ar_tashkeel": "Ø§Ù„Ø®ÙÙ„ÙÙ‚"
					},
					{
						"name_en": "Rajozah",
						"name_ar": "Ø±Ø¬ÙˆØ²Ø©",
						"name_ar_tashkeel": "Ø±ÙØ¬ÙÙˆÙ’Ø²ÙØ©"
					},
					{
						"name_en": "Al-Zaher",
						"name_ar": "Ø§Ù„Ø²Ø§Ù‡Ø±",
						"name_ar_tashkeel": "Ø§Ù„Ø²Ù‘ÙØ§Ù‡ÙØ±"
					},
					{
						"name_en": "Al-Ghail",
						"name_ar": "Ø§Ù„ØºÙŠÙ„",
						"name_ar_tashkeel": "Ø§Ù„ØºÙÙŠÙ’Ù„"
					},
					{
						"name_en": "Al-Mutoon",
						"name_ar": "Ø§Ù„Ù…ØªÙˆÙ†",
						"name_ar_tashkeel": "Ø§Ù„Ù…ÙØªÙÙˆÙ’Ù†"
					},
					{
						"name_en": "Al-Masloob",
						"name_ar": "Ø§Ù„Ù…ØµÙ„ÙˆØ¨",
						"name_ar_tashkeel": "Ø§Ù„Ù…ÙØµÙ’Ù„ÙÙˆÙ’Ø¨"
					},
					{
						"name_en": "Al-Matmmah",
						"name_ar": "Ø§Ù„Ù…Ø·Ù…Ø©",
						"name_ar_tashkeel": "Ø§Ù„Ù…ÙØ·ÙÙ…Ù‘Ø©"
					}
				]
			},
			{
				"name_en": "Ma'rib",
				"name_ar": "Ù…Ø£Ø±Ø¨",
				"name_ar_tashkeel": "Ù…ÙØ£Ù’Ø±ÙØ¨",
				"numbering_plan": "06",
				"districts": [
					{
						"name_en": "Bedbedah",
						"name_ar": "Ø¨Ø¯Ø¨Ø¯Ø©",
						"name_ar_tashkeel": "Ø¨ÙØ¯Ù’Ø¨ÙØ¯ÙØ©"
					},

					{
						"name_en": "Morad Mountain",
						"name_ar": "Ø¬Ø¨Ù„ Ù…Ø±Ø§Ø¯",
						"name_ar_tashkeel": "Ø¬ÙØ¨ÙÙ„ Ù…ÙØ±ÙØ§Ø¯"
					},
					{
						"name_en": "Madghal Al-Gida'an",
						"name_ar": "Ù…Ø¯ØºÙ„ Ø§Ù„Ø¬Ø¯Ø¹Ø§Ù†",
						"name_ar_tashkeel": "Ù…ÙØ¯Ù’ØºÙÙ„ Ø§Ù„Ø¬ÙØ¯Ù’Ø¹ÙØ§Ù†"
					},
					{
						"name_en": "Ma'rib City",
						"name_ar": "Ù…Ø¯ÙŠÙ†Ø© Ù…Ø£Ø±Ø¨",
						"name_ar_tashkeel": "Ù…ÙØ¯ÙÙŠÙ†ÙØ© Ù…ÙØ£Ù’Ø±ÙØ¨"
					},
					{
						"name_en": "Hareeb",
						"name_ar": "Ø­Ø±ÙŠØ¨",
						"name_ar_tashkeel": "Ø­ÙØ±ÙÙŠÙ’Ø¨"
					},
					{
						"name_en": "Hareeb Al-Qaramish",
						"name_ar": "Ø­Ø±ÙŠØ¨ Ø§Ù„Ù‚Ø±Ø§Ù…Ø´",
						"name_ar_tashkeel": "Ø­ÙØ±ÙÙŠÙ’Ø¨ Ø§Ù„Ù‚ÙØ±ÙØ§Ù…ÙØ´"
					},
					{
						"name_en": "Rahabah",
						"name_ar": "Ø±Ø­Ø¨Ø©",
						"name_ar_tashkeel": "Ø±ÙØ­ÙØ¨ÙØ©"
					},
					{
						"name_en": "Raghwan",
						"name_ar": "Ø±ØºÙˆØ§Ù†",
						"name_ar_tashkeel": "Ø±ÙØºÙ’ÙˆÙØ§Ù†"
					},
					{
						"name_en": "Sirwah",
						"name_ar": "ØµØ±ÙˆØ§Ø­",
						"name_ar_tashkeel": "ØµÙØ±Ù’ÙˆÙØ§Ø­"
					},
					{
						"name_en": "Al-Abdiah",
						"name_ar": "Ø§Ù„Ø¹Ø¨Ø¯ÙŠØ©",
						"name_ar_tashkeel": "Ø§Ù„Ø¹ÙØ¨Ù’Ø¯ÙÙŠÙ‘ÙØ©"
					},
					{
						"name_en": "Mahliah",
						"name_ar": "Ù…Ø§Ù‡Ù„ÙŠØ©",
						"name_ar_tashkeel": "Ù…Ø§Ù‡ÙÙ„ÙÙŠÙ‘ÙØ©"
					},
					{
						"name_en": "Al-Jobah",
						"name_ar": "Ø§Ù„Ø¬ÙˆØ¨Ø©",
						"name_ar_tashkeel": "Ø§Ù„Ø¬ÙÙˆÙ’Ø¨ÙØ©"
					},
					{
						"name_en": "Majzar",
						"name_ar": "Ù…Ø¬Ø²Ø±",
						"name_ar_tashkeel": "Ù…ÙØ¬Ù’Ø²ÙØ±"
					},
					{
						"name_en": "Al-Mokalla City",
						"name_ar": "Ù…Ø¯ÙŠÙ†Ø© Ø§Ù„Ù…ÙƒÙ„Ø§",
						"name_ar_tashkeel": "Ù…ÙØ¯ÙÙŠÙ’Ù†ÙØ© Ø§Ù„Ù…ÙÙƒÙÙ„Ù‘ÙØ§"
					}
				]
			},
			{
				"name_en": "Hadramot",
				"name_ar": "Ø­Ø¶Ø±Ù…ÙˆØª",
				"name_ar_tashkeel": "Ø­ÙØ¶Ù’Ø±ÙÙ…ÙÙˆÙ’Øª",
				"numbering_plan": "05",
				"districts": [
					{
						"name_en": "Al-Mokalla",
						"name_ar": "Ø§Ù„Ù…ÙƒÙ„Ø§",
						"name_ar_tashkeel": "Ø§Ù„Ù…ÙÙƒÙÙ„Ù‘ÙØ§"
					},

					{
						"name_en": "Thamood",
						"name_ar": "Ø«Ù…ÙˆØ¯",
						"name_ar_tashkeel": "Ø«ÙÙ…ÙÙˆÙ’Ø¯"
					},
					{
						"name_en": "Al-Qaf",
						"name_ar": "Ø§Ù„Ù‚Ù",
						"name_ar_tashkeel": "Ø§Ù„Ù‚ÙÙ"
					},
					{
						"name_en": "Zamakh and Manookh",
						"name_ar": "Ø²Ù…Ø® ÙˆÙ…Ù†ÙˆØ®",
						"name_ar_tashkeel": "Ø²ÙÙ…ÙØ® ÙˆÙÙ…ÙÙ†ÙÙˆÙ’Ø®"
					},
					{
						"name_en": "Hajr",
						"name_ar": "Ø­Ø¬Ø±",
						"name_ar_tashkeel": "Ø­ÙØ¬Ù’Ø±"
					},
					{
						"name_en": "Al-Abr",
						"name_ar": "Ø§Ù„Ø¹Ø¨Ø±",
						"name_ar_tashkeel": "Ø§Ù„Ø¹ÙØ¨Ù’Ø±"
					},
					{
						"name_en": "Al-Qatn",
						"name_ar": "Ø§Ù„Ù‚Ø·Ù†",
						"name_ar_tashkeel": "Ø§Ù„Ù‚ÙØ·ÙÙ†"
					},
					{
						"name_en": "Shibam",
						"name_ar": "Ø´Ø¨Ø§Ù…",
						"name_ar_tashkeel": "Ø´ÙØ¨ÙØ§Ù…"
					},
					{
						"name_en": "Sah",
						"name_ar": "Ø³Ø§Ù‡",
						"name_ar_tashkeel": "Ø³ÙØ§Ù‡"
					},
					{
						"name_en": "Say'on",
						"name_ar": "Ø³ÙŠØ¦ÙˆÙ†",
						"name_ar_tashkeel": "Ø³ÙÙŠÙ’Ø¦ÙÙˆÙ†"
					},
					{
						"name_en": "Tarim",
						"name_ar": "ØªØ±ÙŠÙ…",
						"name_ar_tashkeel": "ØªÙØ±ÙÙŠÙ’Ù…"
					},
					{
						"name_en": "Al-Soom",
						"name_ar": "Ø§Ù„Ø³ÙˆÙ…",
						"name_ar_tashkeel": "Ø§Ù„Ø³Ù‘ÙÙˆÙ’Ù…"
					},
					{
						"name_en": "Al-Raidah and Qusaier",
						"name_ar": "Ø§Ù„Ø±ÙŠØ¯Ø© ÙˆÙ‚ØµÙŠØ¹Ø±",
						"name_ar_tashkeel": "Ø§Ù„Ø±ÙÙ‘ÙŠÙ’Ø¯ÙØ© ÙˆÙÙ‚ÙØµÙÙŠÙ’Ø¹ÙÙØ±"
					},
					{
						"name_en": "Al-Dais",
						"name_ar": "Ø§Ù„Ø¯ÙŠØ³",
						"name_ar_tashkeel": "Ø§Ù„Ø¯Ù‘ÙÙŠÙ’Ø³"
					},
					{
						"name_en": "Al-Shihr",
						"name_ar": "Ø§Ù„Ø´Ø­Ø±",
						"name_ar_tashkeel": "Ø§Ù„Ø´ÙÙ‘Ø­Ù’Ø±"
					},
					{
						"name_en": "Ghail Bin Yameen",
						"name_ar": "ØºÙŠÙ„ Ø¨Ù† ÙŠÙ…ÙŠÙ†",
						"name_ar_tashkeel": "ØºÙÙŠÙ’Ù„ Ø¨Ù’ÙÙ† ÙŠÙÙ…ÙÙŠÙ’Ù†"
					},
					{
						"name_en": "Ghail Ba Wazeer",
						"name_ar": "ØºÙŠÙ„ Ø¨Ø§ÙˆØ²ÙŠØ±",
						"name_ar_tashkeel": "ØºÙÙŠÙ’Ù„ Ø¨ÙØ§ÙˆÙØ²ÙÙŠÙ’Ø±"
					},
					{
						"name_en": "Dawa'an",
						"name_ar": "Ø¯ÙˆØ¹Ù†",
						"name_ar_tashkeel": "Ø¯ÙÙˆÙ’Ø¹ÙÙ†"
					},
					{
						"name_en": "Amd",
						"name_ar": "Ø¹Ù…Ø¯",
						"name_ar_tashkeel": "Ø¹ÙÙ…Ù’Ø¯"
					},
					{
						"name_en": "Al-Ayn Valley",
						"name_ar": "Ø­ÙˆØ±Ø© ÙˆÙˆØ§Ø¯ÙŠ Ø§Ù„Ø¹ÙŠÙ†",
						"name_ar_tashkeel": "Ø­ÙÙˆÙ’Ø±ÙØ© ÙˆÙÙˆÙØ§Ø¯ÙÙŠ Ø§Ù„Ø¹ÙÙŠÙ’Ù†"
					},
					{
						"name_en": "Raikhyah",
						"name_ar": "Ø±Ø®ÙŠØ©",
						"name_ar_tashkeel": "Ø±ÙØ®Ù’ÙŠÙØ©"
					},
					{
						"name_en": "Yabo'th",
						"name_ar": "ÙŠØ¨Ø¹Ø«",
						"name_ar_tashkeel": "ÙŠÙØ¨Ù’Ø¹ÙØ«"
					},
					{
						"name_en": "Hajar Al-Saia'ar",
						"name_ar": "Ø­Ø¬Ø± Ø§Ù„ØµÙŠØ¹Ø±",
						"name_ar_tashkeel": "Ø­ÙØ¬Ù’Ø± Ø§Ù„ØµÙ‘ÙÙŠÙ’Ø¹ÙØ±"
					},
					{
						"name_en": "Barom Maifa'a",
						"name_ar": "Ø¨Ø±ÙˆÙ… Ù…ÙŠÙØ¹",
						"name_ar_tashkeel": "Ø¨ÙØ±ÙÙˆÙ… Ù…ÙÙŠÙ’ÙÙØ¹"
					},
					{
						"name_en": "Al-Dhlia'ah",
						"name_ar": "Ø§Ù„Ø¶Ù„ÙŠØ¹Ø©",
						"name_ar_tashkeel": "Ø§Ù„Ø¶Ù‘ÙÙ„ÙÙŠÙ’Ø¹ÙØ©"
					},
					{
						"name_en": "Rumah",
						"name_ar": "Ø±Ù…Ø§Ù‡",
						"name_ar_tashkeel": "Ø±ÙÙ…ÙØ§Ù‡"
					},
					{
						"name_en": "Huridhah",
						"name_ar": "Ø­Ø±ÙŠØ¶Ø©",
						"name_ar_tashkeel": "Ø­ÙØ±ÙÙŠÙ’Ø¶ÙØ©"
					}
				]
			},
			{
				"name_en": "Al-Maharah",
				"name_ar": "Ø§Ù„Ù…Ù‡Ø±Ø©",
				"name_ar_tashkeel": "Ø§Ù„Ù…ÙÙ‡ÙØ±ÙØ©",
				"numbering_plan": "05",
				"districts": [
					{
						"name_en": "Haat",
						"name_ar": "Ø­Ø§Øª",
						"name_ar_tashkeel": "Ø­ÙØ§Øª"
					},

					{
						"name_en": "Hsween",
						"name_ar": "Ø­ØµÙˆÙŠÙ†",
						"name_ar_tashkeel": "Ø­ÙØµÙ’ÙˆÙÙŠÙ’Ù†"
					},
					{
						"name_en": "Hawf",
						"name_ar": "Ø­ÙˆÙ",
						"name_ar_tashkeel": "Ø­ÙÙˆÙ’Ù"
					},
					{
						"name_en": "Syhoot",
						"name_ar": "Ø³ÙŠØ­ÙˆØª",
						"name_ar_tashkeel": "Ø³ÙÙŠÙ’Ø­ÙÙˆÙ’Øª"
					},
					{
						"name_en": "Shihin",
						"name_ar": "Ø´Ø­Ù†",
						"name_ar_tashkeel": "Ø´ÙØ­Ù’ÙÙ†"
					},
					{
						"name_en": "Al-Ghaidhah",
						"name_ar": "Ø§Ù„ØºÙŠØ¶Ø©",
						"name_ar_tashkeel": "Ø§Ù„ØºÙÙŠÙ’Ø¶ÙØ©"
					},
					{
						"name_en": "Qashn",
						"name_ar": "Ù‚Ø´Ù†",
						"name_ar_tashkeel": "Ù‚ÙØ´Ù’Ù†"
					},
					{
						"name_en": "Al-Masilah",
						"name_ar": "Ø§Ù„Ù…Ø³ÙŠÙ„Ø©",
						"name_ar_tashkeel": "Ø§Ù„Ù…ÙØ³ÙÙŠÙ’Ù„ÙØ©"
					},
					{
						"name_en": "Man'r",
						"name_ar": "Ù…Ù†Ø¹Ø±",
						"name_ar_tashkeel": "Ù…ÙÙ†Ù’Ø¹ÙØ±"
					}
				]
			},
			{
				"name_en": "Al-Dhale'",
				"name_ar": "Ø§Ù„Ø¶Ø§Ù„Ø¹",
				"name_ar_tashkeel": "Ø§Ù„Ø¶Ù‘ÙØ§Ù„ÙØ¹",
				"numbering_plan": "02",
				"districts": [
					{
						"name_en": "Al-Azariq",
						"name_ar": "Ø§Ù„Ø£Ø²Ø§Ø±Ù‚",
						"name_ar_tashkeel": "Ø§Ù„Ø£ÙØ²ÙØ§Ø±ÙÙ‚"
					},

					{
						"name_en": "Al-Hasha'",
						"name_ar": "Ø§Ù„Ø­Ø´Ø§Ø¡",
						"name_ar_tashkeel": "Ø§Ù„Ø­ÙØ´ÙØ§Ø¡"
					},
					{
						"name_en": "Al-Hosain",
						"name_ar": "Ø§Ù„Ø­ØµÙŠÙ†",
						"name_ar_tashkeel": "Ø§Ù„Ø­ÙØµÙÙŠÙ’Ù†"
					},
					{
						"name_en": "Al-Sho'aib",
						"name_ar": "Ø§Ù„Ø´Ø¹ÙŠØ¨",
						"name_ar_tashkeel": "Ø§Ù„Ø´Ù‘ÙØ¹ÙÙŠÙ’Ø¨"
					},
					{
						"name_en": "Al-Dhale'",
						"name_ar": "Ø§Ù„Ø¶Ø§Ù„Ø¹",
						"name_ar_tashkeel": "Ø§Ù„Ø¶Ù‘ÙØ§Ù„ÙØ¹"
					},
					{
						"name_en": "Joban",
						"name_ar": "Ø¬Ø¨Ù†",
						"name_ar_tashkeel": "Ø¬ÙØ¨ÙÙ†"
					},
					{
						"name_en": "Jehaf",
						"name_ar": "Ø¬Ø­Ø§Ù",
						"name_ar_tashkeel": "Ø¬ÙØ­ÙØ§Ù"
					},
					{
						"name_en": "Damt",
						"name_ar": "Ø¯Ù…Øª",
						"name_ar_tashkeel": "Ø¯ÙÙ…Ù’Øª"
					},
					{
						"name_en": "Qa'tabah",
						"name_ar": "Ù‚Ø¹Ø·Ø¨Ø©",
						"name_ar_tashkeel": "Ù‚ÙØ¹Ù’Ø·ÙØ¨ÙØ©"
					}
				]
			},
			{
				"name_en": "Al-Mahweet",
				"name_ar": "Ø§Ù„Ù…Ø­ÙˆÙŠØª",
				"name_ar_tashkeel": "Ø§Ù„Ù…ÙØ­Ù’ÙˆÙÙŠÙ’Øª",
				"numbering_plan": "07",
				"districts": [
					{
						"name_en": "Melhan",
						"name_ar": "Ù…Ù„Ø­Ø§Ù†",
						"name_ar_tashkeel": "Ù…ÙÙ„Ù’Ø­ÙØ§Ù†"
					},

					{
						"name_en": "Al-Khabt",
						"name_ar": "Ø§Ù„Ø®Ø¨Øª",
						"name_ar_tashkeel": "Ø§Ù„Ø®ÙØ¨Ù’Øª"
					},
					{
						"name_en": "Al-Tawilah",
						"name_ar": "Ø§Ù„Ø·ÙˆÙŠÙ„Ø©",
						"name_ar_tashkeel": "Ø§Ù„Ø·Ù‘ÙÙˆÙÙŠÙ’Ù„ÙØ©"
					},
					{
						"name_en": "Bni Sa'd",
						"name_ar": "Ø¨Ù†ÙŠ Ø³Ø¹Ø¯",
						"name_ar_tashkeel": "Ø¨ÙÙ†ÙÙŠ Ø³ÙØ¹Ù’Ø¯"
					},
					{
						"name_en": "Al-Rojom",
						"name_ar": "Ø§Ù„Ø±Ø¬Ù…",
						"name_ar_tashkeel": "Ø§Ù„Ø±ÙÙ‘Ø¬ÙÙ…"
					},
					{
						"name_en": "Al-Mahweet",
						"name_ar": "Ø§Ù„Ù…Ø­ÙˆÙŠØª",
						"name_ar_tashkeel": "Ø§Ù„Ù…ÙØ­Ù’ÙˆÙÙŠÙ’Øª"
					},
					{
						"name_en": "Al-Mahweet City",
						"name_ar": "Ù…Ø¯ÙŠÙ†Ø© Ø§Ù„Ù…Ø­ÙˆÙŠØª",
						"name_ar_tashkeel": "Ù…ÙØ¯ÙÙŠÙ’Ù†ÙØ© Ø§Ù„Ù…ÙØ­Ù’ÙˆÙÙŠÙ’Øª"
					},
					{
						"name_en": "Shibam Kawkaban",
						"name_ar": "Ø´Ø¨Ø§Ù… ÙƒÙˆÙƒØ¨Ø§Ù†",
						"name_ar_tashkeel": "Ø´ÙØ¨ÙØ§Ù… ÙƒÙÙˆÙ’ÙƒÙØ¨ÙØ§Ù†"
					},
					{
						"name_en": "Hofash",
						"name_ar": "Ø­ÙØ§Ø´",
						"name_ar_tashkeel": "Ø­ÙÙÙØ§Ø´"
					}
				]
			},
			{
				"name_en": "Lahj",
				"name_ar": "Ù„Ø­Ø¬",
				"name_ar_tashkeel": "Ù„ÙØ­Ù’Ø¬",
				"numbering_plan": "02",
				"districts": [
					{
						"name_en": "Al-Had",
						"name_ar": "Ø§Ù„Ø­Ø¯",
						"name_ar_tashkeel": "Ø§Ù„Ø­ÙØ¯"
					},

					{
						"name_en": "Al-Hotah",
						"name_ar": "Ø§Ù„Ø­ÙˆØ·Ø©",
						"name_ar_tashkeel": "Ø§Ù„Ø­ÙÙˆÙ’Ø·ÙØ©"
					},
					{
						"name_en": "Al-Qabbaytah",
						"name_ar": "Ø§Ù„Ù‚Ø¨ÙŠØ·Ø©",
						"name_ar_tashkeel": "Ø§Ù„Ù‚ÙØ¨Ù‘ÙÙŠÙ’Ø·ÙØ©"
					},
					{
						"name_en": "Al-Mosaimeer",
						"name_ar": "Ø§Ù„Ù…Ø³ÙŠÙ…ÙŠØ±",
						"name_ar_tashkeel": "Ø§Ù„Ù…ÙØ³ÙÙŠÙ…ÙÙŠÙ’Ø±"
					},
					{
						"name_en": "Al-Madharaba and Al-A'ara",
						"name_ar": "Ø§Ù„Ù…Ø¶Ø§Ø±Ø¨Ø© ÙˆØ§Ù„Ø¹Ø§Ø±Ø©",
						"name_ar_tashkeel": "Ø§Ù„Ù…ÙØ¶ÙØ§Ø±ÙØ¨ÙØ© ÙˆÙØ§Ù„Ø¹ÙØ§Ø±ÙØ©"
					},
					{
						"name_en": "Al-Muflhi",
						"name_ar": "Ø§Ù„Ù…ÙÙ„Ø­ÙŠ",
						"name_ar_tashkeel": "Ø§Ù„Ù…ÙÙÙ’Ù„ÙØ­ÙÙŠ"
					},
					{
						"name_en": "Al-Maqatirah",
						"name_ar": "Ø§Ù„Ù…Ù‚Ø§Ø·Ø±Ø©",
						"name_ar_tashkeel": "Ø§Ù„Ù…ÙÙ‚ÙØ§Ø·ÙØ±ÙØ©"
					},
					{
						"name_en": "Al-Milah",
						"name_ar": "Ø§Ù„Ù…Ù„Ø§Ø­",
						"name_ar_tashkeel": "Ø§Ù„Ù…ÙÙ„ÙØ§Ø­"
					},
					{
						"name_en": "Tbn",
						"name_ar": "ØªØ¨Ù†",
						"name_ar_tashkeel": "ØªÙØ¨ÙÙ†"
					},
					{
						"name_en": "Halimain",
						"name_ar": "Ø­Ø§Ù„Ù…ÙŠÙ†",
						"name_ar_tashkeel": "Ø­ÙØ§Ù„ÙÙ…ÙÙŠÙ’Ù†"
					},
					{
						"name_en": "Hobail Jabr",
						"name_ar": "Ø­Ø¨ÙŠÙ„ Ø¬Ø¨Ø±",
						"name_ar_tashkeel": "Ø­ÙØ¨ÙÙŠÙ’Ù„ Ø¬ÙØ¨Ù’Ø±"
					},
					{
						"name_en": "Radfan",
						"name_ar": "Ø±Ø¯ÙØ§Ù†",
						"name_ar_tashkeel": "Ø±ÙØ¯Ù’ÙÙØ§Ù†"
					},
					{
						"name_en": "Toor Al-Baha",
						"name_ar": "Ø·ÙˆØ± Ø§Ù„Ø¨Ø§Ø­Ø©",
						"name_ar_tashkeel": "Ø·ÙÙˆÙ’Ø± Ø§Ù„Ø¨ÙØ§Ø­ÙØ©"
					},
					{
						"name_en": "Yafe'",
						"name_ar": "ÙŠØ§ÙØ¹",
						"name_ar_tashkeel": "ÙŠÙØ§ÙÙØ¹"
					},
					{
						"name_en": "Yahar",
						"name_ar": "ÙŠÙ‡Ø±",
						"name_ar_tashkeel": "ÙŠÙÙ‡ÙØ±"
					}
				]
			},
			{
				"name_en": "Raimah",
				"name_ar": "Ø±ÙŠÙ…Ø©",
				"name_ar_tashkeel": "Ø±ÙÙŠÙ’Ù…ÙØ©",
				"numbering_plan": "03",
				"districts": [
					{
						"name_en": "Bilad Al-Ta'am",
						"name_ar": "Ø¨Ù„Ø§Ø¯ Ø§Ù„Ø·Ø¹Ø§Ù…",
						"name_ar_tashkeel": "Ø¨ÙÙ„ÙØ§Ø¯ Ø§Ù„Ø·Ù‘ÙØ¹ÙØ§Ù…"
					},

					{
						"name_en": "Al-Salfiah",
						"name_ar": "Ø§Ù„Ø³Ù„ÙÙŠØ©",
						"name_ar_tashkeel": "Ø§Ù„Ø³Ù‘ÙÙ„Ù’ÙÙÙŠÙØ©"
					},
					{
						"name_en": "Al-Jobain",
						"name_ar": "Ø§Ù„Ø¬Ø¨ÙŠÙ†",
						"name_ar_tashkeel": "Ø§Ù„Ø¬ÙØ¨ÙÙŠÙ’Ù†"
					},
					{
						"name_en": "Mizhir",
						"name_ar": "Ù…Ø²Ù‡Ø±",
						"name_ar_tashkeel": "Ù…ÙØ²Ù’Ù‡ÙØ±"
					},
					{
						"name_en": "Kosmah",
						"name_ar": "ÙƒØ³Ù…Ø©",
						"name_ar_tashkeel": "ÙƒÙØ³Ù’Ù…ÙØ©"
					},
					{
						"name_en": "Al-ja'faria",
						"name_ar": "Ø§Ù„Ø¬Ø¹ÙØ±ÙŠØ©",
						"name_ar_tashkeel": "Ø§Ù„Ø¬ÙØ¹Ù’ÙÙØ±ÙÙŠÙ‘ÙØ©"
					}
				]
			},
			{
				"name_en": "Socatra",
				"name_ar": "Ø³Ù‚Ø·Ø±Ù‰",
				"name_ar_tashkeel": "Ø³ÙÙ‚ÙØ·Ù’Ø±ÙÙ‰",
				"numbering_plan": "05",
				"districts": [
					{
						"name_en": "Hadibu",
						"name_ar": "Ø­Ø¯ÙŠØ¨Ùˆ",
						"name_ar_tashkeel": "Ø­ÙØ¯ÙÙŠÙ’Ø¨ÙÙˆ"
					},

					{
						"name_en": "Qulansiyah and 'Abd-al-Kuri",
						"name_ar": "Ù‚Ù„Ù†Ø³ÙŠØ© ÙˆØ¹Ø¨Ø¯ Ø§Ù„ÙƒÙˆØ±ÙŠ",
						"name_ar_tashkeel": "Ù‚ÙÙ„ÙÙ†Ù’Ø³ÙÙŠÙ‘ÙØ© ÙˆÙØ¹ÙØ¨Ù’Ø¯ Ø§Ù„ÙƒÙÙˆÙ’Ø±ÙÙŠ"
					}
				]
			},
			{
				"name_en": "Abyan",
				"name_ar": "Ø£Ø¨ÙŠÙ†",
				"name_ar_tashkeel": "Ø£ÙØ¨Ù’ÙŠÙÙ†",
				"numbering_plan": "02",
				"districts": [
					{
						"name_en": "Mudiyah",
						"name_ar": "Ù…ÙˆØ¯ÙŠØ©",
						"name_ar_tashkeel": "Ù…ÙÙˆÙ’Ø¯ÙÙŠÙØ©"
					},

					{
						"name_en": "Al Mahfid",
						"name_ar": "Ø§Ù„Ù…Ø­ÙØ¯",
						"name_ar_tashkeel": "Ø§Ù„Ù…ÙØ­Ù’ÙÙØ¯"
					},
					{
						"name_en": "Jayshan",
						"name_ar": "Ø¬ÙŠØ´Ø§Ù†",
						"name_ar_tashkeel": "Ø¬ÙÙŠÙ’Ø´ÙØ§Ù†"
					},
					{
						"name_en": "Lawdar",
						"name_ar": "Ù„ÙˆØ¯Ø±",
						"name_ar_tashkeel": "Ù„ÙÙˆÙ’Ø¯ÙØ±"
					},
					{
						"name_en": "Sabah",
						"name_ar": "Ø³Ø¨Ø§Ø­",
						"name_ar_tashkeel": "Ø³ÙØ¨ÙØ§Ø­"
					},
					{
						"name_en": "Rusud",
						"name_ar": "Ø±ØµØ¯",
						"name_ar_tashkeel": "Ø±ÙØµÙØ¯"
					},
					{
						"name_en": "Sarar",
						"name_ar": "Ø³Ø±Ø§Ø±",
						"name_ar_tashkeel": "Ø³ÙØ±ÙØ§Ø±"
					},
					{
						"name_en": "Al-Wadhi'",
						"name_ar": "Ø§Ù„ÙˆØ¶ÙŠØ¹",
						"name_ar_tashkeel": "Ø§Ù„ÙˆÙØ¶ÙÙŠÙ’Ø¹"
					},
					{
						"name_en": "Ahwar",
						"name_ar": "Ø£Ø­ÙˆØ±",
						"name_ar_tashkeel": "Ø£ÙØ­Ù’ÙˆÙØ±"
					},
					{
						"name_en": "Zunjubar",
						"name_ar": "Ø²Ù†Ø¬Ø¨Ø§Ø±",
						"name_ar_tashkeel": "Ø²ÙÙ†Ù’Ø¬ÙØ¨ÙØ§Ø±"
					},
					{
						"name_en": "Khanfar",
						"name_ar": "Ø®Ù†ÙØ±",
						"name_ar_tashkeel": "Ø®ÙÙ†Ù’ÙÙØ±"
					}
				]
			}
		]
	]
}
